H1 CPF 01  gfz 2021 08 12 12  7241 tandemx   
H2 1003001  6202 36605    2021 08 12 12 59 42 2021 08 17 00 00 42   120 1 1  0 0 0
H9
10 0 59438  46782.000000  0   -1709267.835  -6671545.375    179044.091
10 0 59438  46902.000000  0   -1872335.686  -6591454.821   -724855.838
10 0 59438  47022.000000  0   -2000269.270  -6393689.081  -1616007.091
10 0 59438  47142.000000  0   -2088836.775  -6082435.239  -2478754.215
10 0 59438  47262.000000  0   -2134592.954  -5663938.684  -3297969.799
10 0 59438  47382.000000  0   -2134971.705  -5146368.046  -4059324.032
10 0 59438  47502.000000  0   -2088359.075  -4539643.952  -4749535.073
10 0 59438  47622.000000  0   -1994145.653  -3855237.908  -5356595.995
10 0 59438  47742.000000  0   -1852757.874  -3105946.666  -5869975.993
10 0 59438  47862.000000  0   -1665667.606  -2305646.573  -6280793.880
10 0 59438  47982.000000  0   -1435379.639  -1469032.411  -6581960.661
10 0 59438  48102.000000  0   -1165398.536   -611347.536  -6768289.992
10 0 59438  48222.000000  0    -860175.906    251890.472  -6836577.631
10 0 59438  48342.000000  0    -525037.539   1105164.222  -6785649.928
10 0 59438  48462.000000  0    -166092.279   1933228.094  -6616381.515
10 0 59438  48582.000000  0     209875.235   2721373.400  -6331682.457
10 0 59438  48702.000000  0     595529.159   3455685.615  -5936455.616
10 0 59438  48822.000000  0     983121.927   4123288.615  -5437520.198
10 0 59438  48942.000000  0    1364644.984   4712571.128  -4843504.960
10 0 59438  49062.000000  0    1731990.086   5213394.453  -4164710.972
10 0 59438  49182.000000  0    2077117.914   5617275.297  -3412942.372
10 0 59438  49302.000000  0    2392230.037   5917539.297  -2601309.095
10 0 59438  49422.000000  0    2669941.323   6109443.035  -1744003.242
10 0 59438  49542.000000  0    2903448.450   6190260.013   -856051.362
10 0 59438  49662.000000  0    3086689.528   6159326.702     46952.847
10 0 59438  49782.000000  0    3214490.534   6018046.671    949128.643
10 0 59438  49902.000000  0    3282695.385   5769853.713   1834594.678
10 0 59438  50022.000000  0    3288275.943   5420134.874   2687756.942
10 0 59438  50142.000000  0    3229418.832   4976113.917   3493591.823
10 0 59438  50262.000000  0    3105588.004   4446698.010   4237917.128
10 0 59438  50382.000000  0    2917560.081   3842293.659   4907646.982
10 0 59438  50502.000000  0    2667429.099   3174592.755   5491023.602
10 0 59438  50622.000000  0    2358586.122   2456338.849   5977819.175
10 0 59438  50742.000000  0    1995674.106   1701079.211   6359510.790
10 0 59438  50862.000000  0    1584516.196    922904.326   6629424.902
10 0 59438  50982.000000  0    1132019.706    136182.563   6782846.669
10 0 59438  51102.000000  0     646059.015   -644703.859   6817097.180
10 0 59438  51222.000000  0     135338.261  -1405621.801   6731578.871
10 0 59438  51342.000000  0    -390764.822  -2132943.026   6527785.016
10 0 59438  51462.000000  0    -922371.041  -2813788.507   6209274.614
10 0 59438  51582.000000  0   -1449283.479  -3436256.896   5781612.308
10 0 59438  51702.000000  0   -1961180.448  -3989633.923   5252277.372
10 0 59438  51822.000000  0   -2447817.986  -4464581.614   4630541.261
10 0 59438  51942.000000  0   -2899237.488  -4853303.211   3927311.488
10 0 59438  52062.000000  0   -3305972.176  -5149678.716   3154942.952
10 0 59438  52182.000000  0   -3659246.549  -5349367.199   2327020.616
10 0 59438  52302.000000  0   -3951165.619  -5449874.669   1458118.893
10 0 59438  52422.000000  0   -4174890.218  -5450585.460    563540.333
10 0 59438  52542.000000  0   -4324792.974  -5352755.415   -340960.809
10 0 59438  52662.000000  0   -4396591.217  -5159467.549  -1239464.681
10 0 59438  52782.000000  0   -4387452.502  -4875549.996  -2116175.808
10 0 59438  52902.000000  0   -4296069.919  -4507458.244  -2955708.924
10 0 59438  53022.000000  0   -4122705.766  -4063126.027  -3743363.863
10 0 59438  53142.000000  0   -3869203.194  -3551789.878  -4465383.964
10 0 59438  53262.000000  0   -3538966.702  -2983792.098  -5109193.856
10 0 59438  53382.000000  0   -3136912.015  -2370366.440  -5663612.475
10 0 59438  53502.000000  0   -2669387.526  -1723412.598  -6119037.975
10 0 59438  53622.000000  0   -2144069.326  -1055263.900  -6467603.930
10 0 59438  53742.000000  0   -1569830.997   -378452.533  -6703303.705
10 0 59438  53862.000000  0    -956592.668    294522.265  -6822081.886
10 0 59438  53982.000000  0    -315152.373    951419.080  -6821895.991
10 0 59438  54102.000000  0     342999.973   1580471.338  -6702747.693
10 0 59438  54222.000000  0    1005882.096   2170592.131  -6466683.969
10 0 59438  54342.000000  0    1661233.356   2711566.529  -6117767.236
10 0 59438  54462.000000  0    2296736.915   3194227.113  -5662012.523
10 0 59438  54582.000000  0    2900247.995   3610609.700  -5107293.193
10 0 59438  54702.000000  0    3460024.060   3954087.565  -4463216.761
10 0 59438  54822.000000  0    3964954.647   4219482.664  -3740969.856
10 0 59438  54942.000000  0    4404785.530   4403149.916  -2953132.941
10 0 59438  55062.000000  0    4770331.663   4503032.059  -2113466.357
10 0 59438  55182.000000  0    5053673.556   4518683.390  -1236672.704
10 0 59438  55302.000000  0    5248333.134   4451261.477   -338137.487
10 0 59438  55422.000000  0    5349421.695   4303486.341    566345.700
10 0 59438  55542.000000  0    5353758.303   4079568.706   1460859.140
10 0 59438  55662.000000  0    5259955.976   3785107.239   2329649.542
10 0 59438  55782.000000  0    5068470.804   3426957.170   3157415.041
10 0 59438  55902.000000  0    4781611.994   3013074.576   3929582.643
10 0 59438  56022.000000  0    4403514.463   2552339.739   4632570.019
10 0 59438  56142.000000  0    3940076.178   2054365.070   5254025.429
10 0 59438  56262.000000  0    3398859.273   1529293.611   5783045.845
10 0 59438  56382.000000  0    2788958.503    987589.668   6210364.232
10 0 59438  56502.000000  0    2120842.187    439828.348   6528504.670
10 0 59438  56622.000000  0    1406169.065   -103509.799   6731906.505
10 0 59438  56742.000000  0     657582.576   -632238.343   6817018.062
10 0 59438  56862.000000  0    -111514.718  -1136656.120   6782354.677
10 0 59438  56982.000000  0    -887201.186  -1607724.629   6628522.244
10 0 59438  57102.000000  0   -1655287.543  -2037230.115   6358206.146
10 0 59438  57222.000000  0   -2401574.241  -2417926.204   5976126.279
10 0 59438  57342.000000  0   -3112112.760  -2743656.932   5488962.239
10 0 59438  57462.000000  0   -3773470.620  -3009459.873   4905244.235
10 0 59438  57582.000000  0   -4372990.312  -3211644.106   4235207.594
10 0 59438  57702.000000  0   -4899036.702  -3347842.047   3490616.938
10 0 59438  57822.000000  0   -5341228.926  -3417034.360   2684562.342
10 0 59438  57942.000000  0   -5690652.809  -3419548.202   1831229.752
10 0 59438  58062.000000  0   -5940047.318  -3357027.771    945647.058
10 0 59438  58182.000000  0   -6083959.059  -3232376.263     43412.619
10 0 59438  58302.000000  0   -6118861.857  -3049671.999   -859587.395
10 0 59438  58422.000000  0   -6043237.896  -2814060.382  -1747468.801
10 0 59438  58542.000000  0   -5857616.162  -2531623.593  -2604637.877
10 0 59438  58662.000000  0   -5564569.941  -2209233.259  -3416070.665
10 0 59438  58782.000000  0   -5168674.036  -1854389.720  -4167579.266
10 0 59438  58902.000000  0   -4676423.203  -1475051.921  -4846058.863
10 0 59438  59022.000000  0   -4096114.852  -1079462.364  -5439712.266
10 0 59438  59142.000000  0   -3437698.207   -675970.701  -5938247.375
10 0 59438  59262.000000  0   -2712595.178   -272860.675  -6333044.795
10 0 59438  59382.000000  0   -1933497.149    121816.131  -6617295.130
10 0 59438  59502.000000  0   -1114140.716    500396.156  -6786104.854
10 0 59438  59622.000000  0    -269068.205    855747.662  -6836570.900
10 0 59438  59742.000000  0     586624.598   1181401.515  -6767824.382
10 0 59438  59862.000000  0    1437550.399   1471664.883  -6581045.504
10 0 59438  59982.000000  0    2268301.794   1721719.455  -6279447.030
10 0 59438  60102.000000  0    3063725.241   1927700.916  -5868224.640
10 0 59438  60222.000000  0    3809193.887   2086758.230  -5354475.453
10 0 59438  60342.000000  0    4490875.260   2197092.743  -4747087.298
10 0 59438  60462.000000  0    5095991.827   2257976.619  -4056596.419
10 0 59438  60582.000000  0    5613066.743   2269749.004  -3295014.024
10 0 59438  60702.000000  0    6032149.944   2233790.122  -2475625.610
10 0 59438  60822.000000  0    6345021.346   2152473.807  -1612763.684
10 0 59438  60942.000000  0    6545362.479   2029098.604   -721556.527
10 0 59438  61062.000000  0    6628893.678   1867798.576    182340.494
10 0 59438  61182.000000  0    6593470.150   1673435.540   1083027.418
10 0 59438  61302.000000  0    6439136.526   1451476.753   1964645.533
10 0 59438  61422.000000  0    6168139.237   1207859.669   2811666.574
10 0 59438  61542.000000  0    5784891.897    948847.253   3609174.572
10 0 59438  61662.000000  0    5295897.667    680878.594   4343135.381
10 0 59438  61782.000000  0    4709629.648    410418.062   5000646.098
10 0 59438  61902.000000  0    4036375.441    143807.695   5570162.782
10 0 59438  62022.000000  0    3288045.807   -112875.680   6041701.339
10 0 59438  62142.000000  0    2477955.013   -353952.615   6407006.380
10 0 59438  62262.000000  0    1620578.876   -574261.599   6659689.939
10 0 59438  62382.000000  0     731292.399   -769266.167   6795338.554
10 0 59438  62502.000000  0    -173908.849   -935146.226   6811585.275
10 0 59438  62622.000000  0   -1078696.333  -1068871.840   6708147.252
10 0 59438  62742.000000  0   -1966701.959  -1168258.673   6486829.586
10 0 59438  62862.000000  0   -2821812.331  -1232003.290   6151495.118
10 0 59438  62982.000000  0   -3628460.365  -1259698.418   5708002.980
10 0 59438  63102.000000  0   -4371912.644  -1251829.115   5164113.550
10 0 59438  63222.000000  0   -5038544.706  -1209749.405   4529358.460
99
